{"type":"FeatureCollection","features":[{"type":"Feature","geometry":{"type":"Point","coordinates":[-87.74517,41.87161]},"properties":{"station_id":"970","name":"Cicero-Congress","lines":"Blue Line (Congress)","ada":false,"address":"720 S. Cicero Avenue","legend":"Blue Line","color":"#00a1de"}},{"type":"Feature","geometry":{"type":"Point","coordinates":[-87.80318,41.88685]},"properties":{"station_id":"20","name":"Harlem-Lake","lines":"Green Line (Lake)","ada":true,"address":"1 S. Harlem Avenue","legend":"Green Line","color":"#009b3a"}},{"type":"Feature","geometry":{"type":"Point","coordinates":[-87.78366,41.88716]},"properties":{"station_id":"610","name":"Ridgeland","lines":"Green Line (Lake)","ada":false,"address":"36 N. Ridgeland Avenue","legend":"Green Line","color":"#009b3a"}},{"type":"Feature","geometry":{"type":"Point","coordinates":[-87.83803,41.98429]},"properties":{"station_id":"230","name":"Cumberland","lines":"Blue Line","ada":true,"address":"5800 N. Cumberland Avenue","legend":"Blue Line","color":"#00a1de"}},{"type":"Feature","geometry":{"type":"Point","coordinates":[-87.62619,41.88322]},"properties":{"station_id":"1700","name":"Washington/Wabash","lines":"Brown, Orange, Pink,  Purple (Express), Green","ada":true,"address":"29 N. Wabash","legend":"Multiple Lines","color":"#565a5c"}},{"type":"Feature","geometry":{"type":"Point","coordinates":[-87.63172,41.87557]},"properties":{"station_id":"1340","name":"LaSalle","lines":"Blue Line","ada":false,"address":"150 W. Congress Parkway","legend":"Blue Line","color":"#00a1de"}},{"type":"Feature","geometry":{"type":"Point","coordinates":[-87.64758,41.89119]},"properties":{"station_id":"490","name":"Grand/Milwaukee","lines":"Blue Line (O'Hare)","ada":false,"address":"502 N. Milwaukee Avenue","legend":"Blue Line","color":"#00a1de"}},{"type":"Feature","geometry":{"type":"Point","coordinates":[-87.68562,42.06399]},"properties":{"station_id":"1250","name":"Central-Evanston","lines":"Purple Line, Evanston Express","ada":false,"address":"1022 W. Central Avenue","legend":"Multiple Lines","color":"#565a5c"}},{"type":"Feature","geometry":{"type":"Point","coordinates":[-87.74362,41.96149]},"properties":{"station_id":"1330","name":"Montrose-O'Hare","lines":"Blue Line","ada":false,"address":"4600 W. Montrose Avenue","legend":"Blue Line","color":"#00a1de"}},{"type":"Feature","geometry":{"type":"Point","coordinates":[-87.62146,41.82182]},"properties":{"station_id":"300","name":"Indiana","lines":"Green Line","ada":true,"address":"4003 S. Indiana Avenue","legend":"Green Line","color":"#009b3a"}},{"type":"Feature","geometry":{"type":"Point","coordinates":[-87.63117,41.79542]},"properties":{"station_id":"1170","name":"Garfield-Dan Ryan","lines":"Red Line","ada":true,"address":"220 W. Garfield Boulevard","legend":"Red Line","color":"#c60c30"}},{"type":"Feature","geometry":{"type":"Point","coordinates":[-87.70616,41.88432]},"properties":{"station_id":"1070","name":"Kedzie-Lake","lines":"Green Line (Lake)","ada":true,"address":"3200 W. Lake Street","legend":"Green Line","color":"#009b3a"}},{"type":"Feature","geometry":{"type":"Point","coordinates":[-87.62518,41.75041]},"properties":{"station_id":"240","name":"79th","lines":"Red Line","ada":true,"address":"15 W. 79th Street","legend":"Red Line","color":"#c60c30"}},{"type":"Feature","geometry":{"type":"Point","coordinates":[-87.64918,41.91065]},"properties":{"station_id":"650","name":"North/Clybourn","lines":"Red Line","ada":false,"address":"1599 N. Clybourn Avenue","legend":"Red Line","color":"#c60c30"}},{"type":"Feature","geometry":{"type":"Point","coordinates":[-87.63103,41.81034]},"properties":{"station_id":"1230","name":"47th-Dan Ryan","lines":"Red Line","ada":true,"address":"220 W. 47th Street","legend":"Red Line","color":"#c60c30"}},{"type":"Feature","geometry":{"type":"Point","coordinates":[-87.68354,42.04771]},"properties":{"station_id":"50","name":"Davis","lines":"Purple Line, Evanston Express","ada":true,"address":"1612 N. Benson Avenue","legend":"Multiple Lines","color":"#565a5c"}},{"type":"Feature","geometry":{"type":"Point","coordinates":[-87.67474,41.94703]},"properties":{"station_id":"1440","name":"Addison-Ravenswood","lines":"Brown Line","ada":true,"address":"1818 W. Addison Street","legend":"Brown Line","color":"#62361b"}},{"type":"Feature","geometry":{"type":"Point","coordinates":[-87.69482,41.85428]},"properties":{"station_id":"440","name":"California-Douglas","lines":"Pink Line","ada":true,"address":"2011 S. California Avenue","legend":"Pink Line","color":"#e27ea6"}},{"type":"Feature","geometry":{"type":"Point","coordinates":[-87.63089,41.88574]},"properties":{"station_id":"380","name":"Clark/Lake","lines":"Brown, Orange, Pink, Purple (Express), Green, Blue","ada":true,"address":"100 W. Lake","legend":"Multiple Lines","color":"#565a5c"}},{"type":"Feature","geometry":{"type":"Point","coordinates":[-87.62781,41.88481]},"properties":{"station_id":"1660","name":"Lake/State","lines":"Red Line","ada":true,"address":"188 N. State","legend":"Red Line","color":"#c60c30"}},{"type":"Feature","geometry":{"type":"Point","coordinates":[-87.67954,42.03346]},"properties":{"station_id":"270","name":"Main","lines":"Purple Line, Evanston Express","ada":false,"address":"836 N. Chicago Avenue","legend":"Multiple Lines","color":"#565a5c"}},{"type":"Feature","geometry":{"type":"Point","coordinates":[-87.72562,41.87389]},"properties":{"station_id":"920","name":"Pulaski-Congress","lines":"Blue Line (Congress)","ada":false,"address":"530 S. Pulaski Road","legend":"Blue Line","color":"#00a1de"}},{"type":"Feature","geometry":{"type":"Point","coordinates":[-87.72918,41.95294]},"properties":{"station_id":"550","name":"Irving Park-O'Hare","lines":"Blue Line","ada":false,"address":"4131 W. Irving Park Road","legend":"Blue Line","color":"#00a1de"}},{"type":"Feature","geometry":{"type":"Point","coordinates":[-87.66916,41.85791]},"properties":{"station_id":"830","name":"18th","lines":"Pink Line","ada":true,"address":"1710 W. 18th Street","legend":"Pink Line","color":"#e27ea6"}},{"type":"Feature","geometry":{"type":"Point","coordinates":[-87.61555,41.78013]},"properties":{"station_id":"1140","name":"King Drive","lines":"Green Line","ada":true,"address":"400 E. 63rd Street","legend":"Green Line","color":"#009b3a"}},{"type":"Feature","geometry":{"type":"Point","coordinates":[-87.61832,41.79518]},"properties":{"station_id":"510","name":"Garfield-South Elevated","lines":"Green Line","ada":true,"address":"320 E. Garfield Boulevard","legend":"Green Line","color":"#009b3a"}},{"type":"Feature","geometry":{"type":"Point","coordinates":[-87.68356,42.05416]},"properties":{"station_id":"520","name":"Foster","lines":"Purple Line, Evanston Express","ada":false,"address":"900 W. Foster Street","legend":"Multiple Lines","color":"#565a5c"}},{"type":"Feature","geometry":{"type":"Point","coordinates":[-87.74534,41.85192]},"properties":{"station_id":"420","name":"Cicero-Douglas","lines":"Pink Line","ada":true,"address":"2133 S. 48th Court","legend":"Pink Line","color":"#e27ea6"}},{"type":"Feature","geometry":{"type":"Point","coordinates":[-87.65853,41.97345]},"properties":{"station_id":"1200","name":"Argyle","lines":"Red Line","ada":false,"address":"1118 W. Argyle Street","legend":"Red Line","color":"#c60c30"}},{"type":"Feature","geometry":{"type":"Point","coordinates":[-87.63397,41.88897]},"properties":{"station_id":"460","name":"Merchandise Mart","lines":"Brown, Purple (Express)","ada":true,"address":"350 N. Wells Street","legend":"Multiple Lines","color":"#565a5c"}},{"type":"Feature","geometry":{"type":"Point","coordinates":[-87.62818,41.89667]},"properties":{"station_id":"1450","name":"Chicago/State","lines":"Red Line","ada":true,"address":"800 N. State Street","legend":"Red Line","color":"#c60c30"}},{"type":"Feature","geometry":{"type":"Point","coordinates":[-87.63385,41.8827]},"properties":{"station_id":"730","name":"Washington/Wells","lines":"Brown, Orange, Pink, Purple (Express)","ada":true,"address":"100 N. Wells Street","legend":"Multiple Lines","color":"#565a5c"}},{"type":"Feature","geometry":{"type":"Point","coordinates":[-87.65773,41.96425]},"properties":{"station_id":"540","name":"Wilson","lines":"Purple, Red Line","ada":true,"address":"4920 N. Broadway Street","legend":"Multiple Lines","color":"#565a5c"}},{"type":"Feature","geometry":{"type":"Point","coordinates":[-87.79378,41.88699]},"properties":{"station_id":"1350","name":"Oak Park-Lake","lines":"Green Line (Lake)","ada":false,"address":"100 S. Oak Park Avenue","legend":"Green Line","color":"#009b3a"}},{"type":"Feature","geometry":{"type":"Point","coordinates":[-87.73796,41.78661]},"properties":{"station_id":"930","name":"Midway Airport","lines":"Orange Line","ada":true,"address":"4612 W. 59th Street","legend":"Orange Line","color":"#f9461c"}},{"type":"Feature","geometry":{"type":"Point","coordinates":[-87.65521,41.89608]},"properties":{"station_id":"1410","name":"Chicago/Milwaukee","lines":"Blue Line","ada":false,"address":"800 N. Milwaukee Avenue","legend":"Blue Line","color":"#00a1de"}},{"type":"Feature","geometry":{"type":"Point","coordinates":[-87.63374,41.87872]},"properties":{"station_id":"40","name":"Quincy/Wells","lines":"Brown, Orange, Pink, Purple (Express)","ada":true,"address":"220 S. Wells Street","legend":"Multiple Lines","color":"#565a5c"}},{"type":"Feature","geometry":{"type":"Point","coordinates":[-87.65264,41.91822]},"properties":{"station_id":"660","name":"Armitage","lines":"Brown, Purple (Express)","ada":true,"address":"944 W. Armitage Avenue","legend":"Multiple Lines","color":"#565a5c"}},{"type":"Feature","geometry":{"type":"Point","coordinates":[-87.65213,41.88558]},"properties":{"station_id":"1510","name":"Morgan","lines":"Green (Lake), Pink","ada":true,"address":"1000 W Lake St","legend":"Multiple Lines","color":"#565a5c"}},{"type":"Feature","geometry":{"type":"Point","coordinates":[-87.75499,41.88716]},"properties":{"station_id":"700","name":"Laramie","lines":"Green Line (Lake)","ada":true,"address":"5148 W. Lake Street","legend":"Green Line","color":"#009b3a"}},{"type":"Feature","geometry":{"type":"Point","coordinates":[-87.60586,41.78031]},"properties":{"station_id":"720","name":"Cottage Grove","lines":"Green Line","ada":true,"address":"800 E. 63rd Street","legend":"Green Line","color":"#009b3a"}},{"type":"Feature","geometry":{"type":"Point","coordinates":[-87.66106,42.00107]},"properties":{"station_id":"1300","name":"Loyola","lines":"Red Line","ada":true,"address":"1200 W. Loyola Avenue","legend":"Red Line","color":"#c60c30"}},{"type":"Feature","geometry":{"type":"Point","coordinates":[-87.62821,41.87691]},"properties":{"station_id":"850","name":"Library","lines":"Brown, Orange, Pink, Purple (Express)","ada":true,"address":"26 W. Van Buren Street","legend":"Multiple Lines","color":"#565a5c"}},{"type":"Feature","geometry":{"type":"Point","coordinates":[-87.62748,41.87404]},"properties":{"station_id":"1490","name":"Harrison","lines":"Red Line","ada":false,"address":"608 S. State Street","legend":"Red Line","color":"#c60c30"}},{"type":"Feature","geometry":{"type":"Point","coordinates":[-87.85939,41.98351]},"properties":{"station_id":"820","name":"Rosemont","lines":"Blue Line","ada":true,"address":"5801 N. River Road","legend":"Blue Line","color":"#00a1de"}},{"type":"Feature","geometry":{"type":"Point","coordinates":[-87.62659,41.8674]},"properties":{"station_id":"410","name":"Roosevelt/Wabash","lines":"Orange & Green Lines","ada":true,"address":"22 E. Roosevelt Road","legend":"Multiple Lines","color":"#565a5c"}},{"type":"Feature","geometry":{"type":"Point","coordinates":[-87.69411,41.96621]},"properties":{"station_id":"1010","name":"Rockwell","lines":"Brown Line","ada":true,"address":"4648 N. Rockwell Street","legend":"Brown Line","color":"#62361b"}},{"type":"Feature","geometry":{"type":"Point","coordinates":[-87.65946,41.87589]},"properties":{"station_id":"470","name":"Racine","lines":"Blue Line","ada":false,"address":"430 S. Racine Avenue","legend":"Blue Line","color":"#00a1de"}},{"type":"Feature","geometry":{"type":"Point","coordinates":[-87.70598,41.87443]},"properties":{"station_id":"250","name":"Kedzie-Homan","lines":"Blue Line (Congress)","ada":true,"address":"530 S. Kedzie Avenue","legend":"Blue Line","color":"#00a1de"}},{"type":"Feature","geometry":{"type":"Point","coordinates":[-87.71236,41.93813]},"properties":{"station_id":"60","name":"Belmont-O'Hare","lines":"Blue Line","ada":false,"address":"3355 W. Belmont Avenue","legend":"Blue Line","color":"#00a1de"}},{"type":"Feature","geometry":{"type":"Point","coordinates":[-87.6816,42.04165]},"properties":{"station_id":"690","name":"Dempster","lines":"Purple Line, Evanston Express","ada":false,"address":"1316 N. Sherman Avenue","legend":"Multiple Lines","color":"#565a5c"}},{"type":"Feature","geometry":{"type":"Point","coordinates":[-87.631,41.78053]},"properties":{"station_id":"910","name":"63rd-Dan Ryan","lines":"Red Line","ada":true,"address":"220 W. 63rd Street","legend":"Red Line","color":"#c60c30"}},{"type":"Feature","geometry":{"type":"Point","coordinates":[-87.66954,41.87156]},"properties":{"station_id":"1030","name":"Polk","lines":"Pink Line","ada":true,"address":"1713 W. Polk Street","legend":"Pink Line","color":"#e27ea6"}},{"type":"Feature","geometry":{"type":"Point","coordinates":[-87.65363,41.94743]},"properties":{"station_id":"1420","name":"Addison-North Main","lines":"Red Line","ada":true,"address":"940 W. Addison Street","legend":"Red Line","color":"#c60c30"}},{"type":"Feature","geometry":{"type":"Point","coordinates":[-87.64813,41.8469]},"properties":{"station_id":"1130","name":"Halsted-Midway","lines":"Orange Line","ada":true,"address":"2520 S. Archer Avenue","legend":"Orange Line","color":"#f9461c"}},{"type":"Feature","geometry":{"type":"Point","coordinates":[-87.72445,41.79989]},"properties":{"station_id":"960","name":"Pulaski-Midway","lines":"Orange Line","ada":true,"address":"5106 S. Pulaski Road","legend":"Orange Line","color":"#f9461c"}},{"type":"Feature","geometry":{"type":"Point","coordinates":[-87.70166,41.96615]},"properties":{"station_id":"870","name":"Francisco","lines":"Brown Line","ada":true,"address":"4648 N. Francisco Avenue","legend":"Brown Line","color":"#62361b"}},{"type":"Feature","geometry":{"type":"Point","coordinates":[-87.67833,42.02761]},"properties":{"station_id":"840","name":"South Boulevard","lines":"Purple Line, Evanston Express","ada":false,"address":"601 W. South Boulevard","legend":"Multiple Lines","color":"#565a5c"}},{"type":"Feature","geometry":{"type":"Point","coordinates":[-87.65867,41.97798]},"properties":{"station_id":"340","name":"Berwyn","lines":"Red Line","ada":false,"address":"1121 W. Berwyn Avenue","legend":"Red Line","color":"#c60c30"}},{"type":"Feature","geometry":{"type":"Point","coordinates":[-87.66361,41.94381]},"properties":{"station_id":"360","name":"Southport","lines":"Brown Line","ada":true,"address":"3411 N. Southport Avenue","legend":"Brown Line","color":"#62361b"}},{"type":"Feature","geometry":{"type":"Point","coordinates":[-87.6185,41.80209]},"properties":{"station_id":"130","name":"51st","lines":"Green Line","ada":true,"address":"314 E. 51st Street","legend":"Green Line","color":"#009b3a"}},{"type":"Feature","geometry":{"type":"Point","coordinates":[-87.69073,42.07315]},"properties":{"station_id":"1050","name":"Linden","lines":"Purple Line, Evanston Express","ada":true,"address":"349 W. Linden Avenue","legend":"Multiple Lines","color":"#565a5c"}},{"type":"Feature","geometry":{"type":"Point","coordinates":[-87.7191,41.94736]},"properties":{"station_id":"1240","name":"Addison-O'Hare","lines":"Blue Line","ada":true,"address":"3622 W. Addison Street","legend":"Blue Line","color":"#00a1de"}},{"type":"Feature","geometry":{"type":"Point","coordinates":[-87.77414,41.88729]},"properties":{"station_id":"1260","name":"Austin-Lake","lines":"Green Line (Lake)","ada":false,"address":"351 N. Austin Blvd","legend":"Green Line","color":"#009b3a"}},{"type":"Feature","geometry":{"type":"Point","coordinates":[-87.61883,41.80921]},"properties":{"station_id":"1080","name":"47th-South Elevated","lines":"Green Line","ada":true,"address":"314 E. 47th Street","legend":"Green Line","color":"#009b3a"}},{"type":"Feature","geometry":{"type":"Point","coordinates":[-87.90185,41.97888]},"properties":{"station_id":"890","name":"O'Hare Airport","lines":"Blue Line","ada":true,"address":"1000 O'Hare Drive","legend":"Blue Line","color":"#00a1de"}},{"type":"Feature","geometry":{"type":"Point","coordinates":[-87.62588,41.83168]},"properties":{"station_id":"1120","name":"35-Bronzeville-IIT","lines":"Green Line","ada":true,"address":"16 E. 35th Street","legend":"Green Line","color":"#009b3a"}},{"type":"Feature","geometry":{"type":"Point","coordinates":[-87.67496,41.95452]},"properties":{"station_id":"1460","name":"Irving Park-Ravenswood","lines":"Brown Line","ada":true,"address":"1816 W. Irving Park Dr","legend":"Brown Line","color":"#62361b"}},{"type":"Feature","geometry":{"type":"Point","coordinates":[-87.67517,41.96175]},"properties":{"station_id":"1500","name":"Montrose-Ravenswood","lines":"Brown Line","ada":true,"address":"1814 W. Montrose Avenue","legend":"Brown Line","color":"#62361b"}},{"type":"Feature","geometry":{"type":"Point","coordinates":[-87.76089,41.97063]},"properties":{"station_id":"1280","name":"Jefferson Park","lines":"Blue Line","ada":true,"address":"4917 N. Milwaukee Avenue","legend":"Blue Line","color":"#00a1de"}},{"type":"Feature","geometry":{"type":"Point","coordinates":[-87.65313,41.93273]},"properties":{"station_id":"530","name":"Diversey","lines":"Brown, Purple (Express)","ada":true,"address":"940 W. Diversey Avenue","legend":"Multiple Lines","color":"#565a5c"}},{"type":"Feature","geometry":{"type":"Point","coordinates":[-87.62938,41.8807]},"properties":{"station_id":"790","name":"Monroe/Dearborn","lines":"Blue Line","ada":false,"address":"114 S. Dearborn","legend":"Blue Line","color":"#00a1de"}},{"type":"Feature","geometry":{"type":"Point","coordinates":[-87.76565,41.88739]},"properties":{"station_id":"280","name":"Central-Lake","lines":"Green Line (Lake)","ada":true,"address":"350 N. Central Avenue","legend":"Green Line","color":"#009b3a"}},{"type":"Feature","geometry":{"type":"Point","coordinates":[-87.63097,41.85321]},"properties":{"station_id":"1000","name":"Cermak-Chinatown","lines":"Red Line","ada":true,"address":"138 W. Cermak Road","legend":"Red Line","color":"#c60c30"}},{"type":"Feature","geometry":{"type":"Point","coordinates":[-87.70854,41.92973]},"properties":{"station_id":"1020","name":"Logan Square","lines":"Blue Line","ada":true,"address":"2620 N. Milwaukee Av","legend":"Blue Line","color":"#00a1de"}},{"type":"Feature","geometry":{"type":"Point","coordinates":[-87.6885,41.96625]},"properties":{"station_id":"1480","name":"Western-Ravenswood","lines":"Brown Line","ada":true,"address":"4645 N. Western Avenue","legend":"Brown Line","color":"#62361b"}},{"type":"Feature","geometry":{"type":"Point","coordinates":[-87.62944,41.88316]},"properties":{"station_id":"370","name":"Washington/Dearborn","lines":"Blue Line","ada":false,"address":"19 N. Dearborn","legend":"Blue Line","color":"#00a1de"}},{"type":"Feature","geometry":{"type":"Point","coordinates":[-87.67689,41.88497]},"properties":{"station_id":"1710","name":"Damen-Lake","lines":"Green Line (Lake)","ada":true,"address":"154 N. Damen Ave","legend":"Green Line","color":"#009b3a"}},{"type":"Feature","geometry":{"type":"Point","coordinates":[-87.65327,41.93603]},"properties":{"station_id":"1210","name":"Wellington","lines":"Brown, Purple (Express)","ada":true,"address":"945 W. Wellington Avenue","legend":"Multiple Lines","color":"#565a5c"}},{"type":"Feature","geometry":{"type":"Point","coordinates":[-87.74722,42.02624]},"properties":{"station_id":"1680","name":"Oakton-Skokie","lines":"Yellow Line","ada":true,"address":"4802 W Oakton","legend":"Yellow Line","color":"#f9e300"}},{"type":"Feature","geometry":{"type":"Point","coordinates":[-87.64964,41.87552]},"properties":{"station_id":"350","name":"UIC-Halsted","lines":"Blue Line","ada":true,"address":"430 S. Halsted Street","legend":"Blue Line","color":"#00a1de"}},{"type":"Feature","geometry":{"type":"Point","coordinates":[-87.71488,41.85399]},"properties":{"station_id":"780","name":"Central Park","lines":"Pink Line","ada":true,"address":"1915 S. Central Park Avenue","legend":"Pink Line","color":"#e27ea6"}},{"type":"Feature","geometry":{"type":"Point","coordinates":[-87.66531,41.83936]},"properties":{"station_id":"1060","name":"Ashland-Midway","lines":"Orange Line","ada":true,"address":"3011 S. Ashland Avenue","legend":"Orange Line","color":"#f9461c"}},{"type":"Feature","geometry":{"type":"Point","coordinates":[-87.67744,41.90974]},"properties":{"station_id":"590","name":"Damen/Milwaukee","lines":"Blue Line","ada":false,"address":"1558 N. Damen Avenue","legend":"Blue Line","color":"#00a1de"}},{"type":"Feature","geometry":{"type":"Point","coordinates":[-87.68334,42.05828]},"properties":{"station_id":"400","name":"Noyes","lines":"Purple Line, Evanston Express","ada":false,"address":"901 W. Noyes Street","legend":"Multiple Lines","color":"#565a5c"}},{"type":"Feature","geometry":{"type":"Point","coordinates":[-87.81732,41.87426]},"properties":{"station_id":"390","name":"Forest Park","lines":"Blue Line","ada":true,"address":"711 S. Des Plaines Avenue","legend":"Blue Line","color":"#00a1de"}},{"type":"Feature","geometry":{"type":"Point","coordinates":[-87.69623,41.88422]},"properties":{"station_id":"1360","name":"California-Lake","lines":"Green Line (Lake)","ada":true,"address":"2800 W. Lake Street","legend":"Green Line","color":"#009b3a"}},{"type":"Feature","geometry":{"type":"Point","coordinates":[-87.62441,41.72238]},"properties":{"station_id":"450","name":"95th/Dan Ryan","lines":"Red Line","ada":true,"address":"14 W. 95th Street","legend":"Red Line","color":"#c60c30"}},{"type":"Feature","geometry":{"type":"Point","coordinates":[-87.6393,41.91041]},"properties":{"station_id":"800","name":"Sedgwick","lines":"Brown, Purple (Express)","ada":true,"address":"1536 N. Sedgwick Avenue","legend":"Multiple Lines","color":"#565a5c"}},{"type":"Feature","geometry":{"type":"Point","coordinates":[-87.67395,41.87564]},"properties":{"station_id":"810","name":"Illinois Medical District","lines":"Blue Line","ada":true,"address":"430 S. Damen Avenue","legend":"Blue Line","color":"#00a1de"}},{"type":"Feature","geometry":{"type":"Point","coordinates":[-87.68059,41.82956]},"properties":{"station_id":"120","name":"35th/Archer","lines":"Orange Line","ada":true,"address":"3528 S. Leavitt Street","legend":"Orange Line","color":"#f9461c"}},{"type":"Feature","geometry":{"type":"Point","coordinates":[-87.66909,42.01588]},"properties":{"station_id":"1190","name":"Jarvis","lines":"Red Line","ada":false,"address":"1523 W. Jarvis Street","legend":"Red Line","color":"#c60c30"}},{"type":"Feature","geometry":{"type":"Point","coordinates":[-87.6261,41.87951]},"properties":{"station_id":"680","name":"Adams/Wabash","lines":"Brown, Orange, Pink,  Purple (Express), Green","ada":false,"address":"201 S. Wabash Avenue","legend":"Multiple Lines","color":"#565a5c"}},{"type":"Feature","geometry":{"type":"Point","coordinates":[-87.66695,41.88531]},"properties":{"station_id":"170","name":"Ashland-Lake","lines":"Green (Lake), Pink","ada":true,"address":"1601 W. Lake Street","legend":"Multiple Lines","color":"#565a5c"}},{"type":"Feature","geometry":{"type":"Point","coordinates":[-87.68518,41.8544]},"properties":{"station_id":"740","name":"Western-Douglas","lines":"Pink Line","ada":true,"address":"2009 S. Western Avenue","legend":"Pink Line","color":"#e27ea6"}},{"type":"Feature","geometry":{"type":"Point","coordinates":[-87.65849,41.96914]},"properties":{"station_id":"770","name":"Lawrence","lines":"Red Line","ada":false,"address":"1117 W. Lawrence Avenue","legend":"Red Line","color":"#c60c30"}},{"type":"Feature","geometry":{"type":"Point","coordinates":[-87.75669,41.85177]},"properties":{"station_id":"580","name":"54th/Cermak","lines":"Pink Line","ada":true,"address":"2134 S. 54th Avenue","legend":"Pink Line","color":"#e27ea6"}},{"type":"Feature","geometry":{"type":"Point","coordinates":[-87.65493,41.95377]},"properties":{"station_id":"80","name":"Sheridan","lines":"Red Line","ada":false,"address":"3940 N. Sheridan Road","legend":"Red Line","color":"#c60c30"}},{"type":"Feature","geometry":{"type":"Point","coordinates":[-87.65908,41.99026]},"properties":{"station_id":"880","name":"Thorndale","lines":"Red Line","ada":false,"address":"1118 W. Thorndale Avenue","legend":"Red Line","color":"#c60c30"}},{"type":"Feature","geometry":{"type":"Point","coordinates":[-87.70884,41.96609]},"properties":{"station_id":"1180","name":"Kedzie-Ravenswood","lines":"Brown Line","ada":true,"address":"4648 N. Kedzie Avenue","legend":"Brown Line","color":"#62361b"}},{"type":"Feature","geometry":{"type":"Point","coordinates":[-87.63173,41.87686]},"properties":{"station_id":"160","name":"LaSalle/Van Buren","lines":"Brown, Orange, Pink, Purple (Express)","ada":false,"address":"121 W. Van Buren Street","legend":"Multiple Lines","color":"#565a5c"}},{"type":"Feature","geometry":{"type":"Point","coordinates":[-87.80696,41.87349]},"properties":{"station_id":"980","name":"Harlem-Congress","lines":"Blue Line (Congress)","ada":false,"address":"701 S. Harlem Avenue","legend":"Blue Line","color":"#00a1de"}},{"type":"Feature","geometry":{"type":"Point","coordinates":[-87.65287,41.92505]},"properties":{"station_id":"1220","name":"Fullerton","lines":"Red, Brown, Purple (Express)","ada":true,"address":"943  W. Fullerton Avenue","legend":"Multiple Lines","color":"#565a5c"}},{"type":"Feature","geometry":{"type":"Point","coordinates":[-87.68843,41.87553]},"properties":{"station_id":"220","name":"Western-Congress","lines":"Blue Line (Congress)","ada":false,"address":"430 S. Western Avenue","legend":"Blue Line","color":"#00a1de"}},{"type":"Feature","geometry":{"type":"Point","coordinates":[-87.67863,41.96641]},"properties":{"station_id":"90","name":"Damen-Ravenswood","lines":"Brown Line","ada":true,"address":"4643 N. Damen Avenue","legend":"Brown Line","color":"#62361b"}},{"type":"Feature","geometry":{"type":"Point","coordinates":[-87.63141,41.90392]},"properties":{"station_id":"630","name":"Clark/Division","lines":"Red Line","ada":true,"address":"1200 N. Clark Street","legend":"Red Line","color":"#c60c30"}},{"type":"Feature","geometry":{"type":"Point","coordinates":[-87.66384,41.77895]},"properties":{"station_id":"290","name":"Ashland/63rd","lines":"Green Line (Englewood)","ada":true,"address":"6315 S. Ashland Avenue","legend":"Green Line","color":"#009b3a"}},{"type":"Feature","geometry":{"type":"Point","coordinates":[-87.63595,41.89677]},"properties":{"station_id":"710","name":"Chicago/Franklin","lines":"Brown, Purple (Express)","ada":true,"address":"300 W. Chicago Avenue","legend":"Multiple Lines","color":"#565a5c"}},{"type":"Feature","geometry":{"type":"Point","coordinates":[-87.62581,41.76837]},"properties":{"station_id":"990","name":"69th","lines":"Red Line","ada":true,"address":"15 W. 69th Street","legend":"Red Line","color":"#c60c30"}},{"type":"Feature","geometry":{"type":"Point","coordinates":[-87.6274,41.86737]},"properties":{"station_id":"1400","name":"Roosevelt/State","lines":"Red Line","ada":true,"address":"1167 S. State Street","legend":"Red Line","color":"#c60c30"}},{"type":"Feature","geometry":{"type":"Point","coordinates":[-87.66591,42.00836]},"properties":{"station_id":"100","name":"Morse","lines":"Red Line","ada":false,"address":"1358 W. Morse Avenue","legend":"Red Line","color":"#c60c30"}},{"type":"Feature","geometry":{"type":"Point","coordinates":[-87.6277,41.88074]},"properties":{"station_id":"1090","name":"Monroe/State","lines":"Red Line","ada":false,"address":"26 S. State","legend":"Red Line","color":"#c60c30"}},{"type":"Feature","geometry":{"type":"Point","coordinates":[-87.6264,41.85312]},"properties":{"station_id":"1690","name":"Cermak-McCormick Place","lines":"Green Line","ada":true,"address":"12 E. Cermak Rd.","legend":"Green Line","color":"#009b3a"}},{"type":"Feature","geometry":{"type":"Point","coordinates":[-87.68736,41.91616]},"properties":{"station_id":"670","name":"Western/Milwaukee","lines":"Blue Line (O'Hare)","ada":true,"address":"1909 N. Western Avenue","legend":"Blue Line","color":"#00a1de"}},{"type":"Feature","geometry":{"type":"Point","coordinates":[-87.67289,42.01906]},"properties":{"station_id":"900","name":"Howard","lines":"Red, Yellow, Purple, Evanston Express","ada":true,"address":"1649 W. Howard Street","legend":"Multiple Lines","color":"#565a5c"}},{"type":"Feature","geometry":{"type":"Point","coordinates":[-87.63064,41.83119]},"properties":{"station_id":"190","name":"Sox-35th-Dan Ryan","lines":"Red Line","ada":true,"address":"142 W. 35th Street","legend":"Red Line","color":"#c60c30"}},{"type":"Feature","geometry":{"type":"Point","coordinates":[-87.61904,41.81646]},"properties":{"station_id":"1270","name":"43rd","lines":"Green Line","ada":true,"address":"314 E. 43rd Street","legend":"Green Line","color":"#009b3a"}},{"type":"Feature","geometry":{"type":"Point","coordinates":[-87.64098,41.87554]},"properties":{"station_id":"430","name":"Clinton-Congress","lines":"Blue Line","ada":false,"address":"426 S. Clinton Street","legend":"Blue Line","color":"#00a1de"}},{"type":"Feature","geometry":{"type":"Point","coordinates":[-87.6665,41.90336]},"properties":{"station_id":"320","name":"Division/Milwaukee","lines":"Blue Line","ada":false,"address":"1200 N. Milwaukee Avenue","legend":"Blue Line","color":"#00a1de"}},{"type":"Feature","geometry":{"type":"Point","coordinates":[-87.62475,41.73537]},"properties":{"station_id":"1430","name":"87th","lines":"Red Line","ada":true,"address":"15 W. 87th Street","legend":"Red Line","color":"#c60c30"}},{"type":"Feature","geometry":{"type":"Point","coordinates":[-87.69689,41.92194]},"properties":{"station_id":"570","name":"California/Milwaukee","lines":"Blue Line (O'Hare)","ada":false,"address":"2211 N. California Avenue","legend":"Blue Line","color":"#00a1de"}},{"type":"Feature","geometry":{"type":"Point","coordinates":[-87.70432,41.80435]},"properties":{"station_id":"1150","name":"Kedzie-Midway","lines":"Orange Line","ada":true,"address":"4900 S. Kedzie Avenue","legend":"Orange Line","color":"#f9461c"}},{"type":"Feature","geometry":{"type":"Point","coordinates":[-87.7254,41.88541]},"properties":{"station_id":"30","name":"Pulaski-Lake","lines":"Green Line (Lake)","ada":true,"address":"4000 W. Lake Street","legend":"Green Line","color":"#009b3a"}},{"type":"Feature","geometry":{"type":"Point","coordinates":[-87.7447,41.88652]},"properties":{"station_id":"480","name":"Cicero-Lake","lines":"Green Line (Lake)","ada":true,"address":"4800 W. Lake Street","legend":"Green Line","color":"#009b3a"}},{"type":"Feature","geometry":{"type":"Point","coordinates":[-87.72433,41.85386]},"properties":{"station_id":"150","name":"Pulaski-Douglas","lines":"Pink Line","ada":true,"address":"2005 S. Pulaski Road","legend":"Pink Line","color":"#e27ea6"}},{"type":"Feature","geometry":{"type":"Point","coordinates":[-87.65338,41.93975]},"properties":{"station_id":"1320","name":"Belmont-North Main","lines":"Red, Brown, Purple (Express)","ada":true,"address":"945 W. Belmont Avenue","legend":"Multiple Lines","color":"#565a5c"}},{"type":"Feature","geometry":{"type":"Point","coordinates":[-87.64402,41.77903]},"properties":{"station_id":"940","name":"Halsted/63rd","lines":"Green Line","ada":true,"address":"6321 S. Halsted Street","legend":"Green Line","color":"#009b3a"}},{"type":"Feature","geometry":{"type":"Point","coordinates":[-87.75192,42.03895]},"properties":{"station_id":"140","name":"Dempster-Skokie","lines":"Yellow Line","ada":true,"address":"5001 W. Dempster Street","legend":"Yellow Line","color":"#f9e300"}},{"type":"Feature","geometry":{"type":"Point","coordinates":[-87.62784,41.88574]},"properties":{"station_id":"260","name":"State/Lake","lines":"Brown, Orange, Pink,  Purple (Express), Green","ada":false,"address":"200 N. State Street","legend":"Multiple Lines","color":"#565a5c"}},{"type":"Feature","geometry":{"type":"Point","coordinates":[-87.68406,41.80468]},"properties":{"station_id":"310","name":"Western-Midway","lines":"Orange Line","ada":true,"address":"4901 S. Western Avenue","legend":"Orange Line","color":"#f9461c"}},{"type":"Feature","geometry":{"type":"Point","coordinates":[-87.64177,41.8857]},"properties":{"station_id":"1160","name":"Clinton-Lake","lines":"Green (Lake), Pink","ada":true,"address":"540 W. Lake Street","legend":"Multiple Lines","color":"#565a5c"}},{"type":"Feature","geometry":{"type":"Point","coordinates":[-87.6293,41.87818]},"properties":{"station_id":"70","name":"Jackson/Dearborn","lines":"Blue Line","ada":true,"address":"328 S. Dearborn","legend":"Blue Line","color":"#00a1de"}},{"type":"Feature","geometry":{"type":"Point","coordinates":[-87.6276,41.87815]},"properties":{"station_id":"560","name":"Jackson/State","lines":"Red Line","ada":true,"address":"230 S. State","legend":"Red Line","color":"#c60c30"}},{"type":"Feature","geometry":{"type":"Point","coordinates":[-87.67597,41.85451]},"properties":{"station_id":"210","name":"Damen","lines":"Pink Line","ada":true,"address":"2010 S. Damen Avenue","legend":"Pink Line","color":"#e27ea6"}},{"type":"Feature","geometry":{"type":"Point","coordinates":[-87.7916,41.87211]},"properties":{"station_id":"180","name":"Oak Park-Congress","lines":"Blue Line","ada":false,"address":"950 S. Oak Park Avenue","legend":"Blue Line","color":"#00a1de"}},{"type":"Feature","geometry":{"type":"Point","coordinates":[-87.65884,41.9835]},"properties":{"station_id":"1380","name":"Bryn Mawr","lines":"Red Line","ada":false,"address":"1119 W. Bryn Mawr Avenue","legend":"Red Line","color":"#c60c30"}},{"type":"Feature","geometry":{"type":"Point","coordinates":[-87.6592,41.99366]},"properties":{"station_id":"760","name":"Granville","lines":"Red Line","ada":true,"address":"1119 W. Granville Avenue","legend":"Red Line","color":"#c60c30"}},{"type":"Feature","geometry":{"type":"Point","coordinates":[-87.67088,41.94371]},"properties":{"station_id":"1310","name":"Paulina","lines":"Brown Line","ada":true,"address":"3411 N. Paulina Street","legend":"Brown Line","color":"#62361b"}},{"type":"Feature","geometry":{"type":"Point","coordinates":[-87.77679,41.87089]},"properties":{"station_id":"10","name":"Austin-Congress","lines":"Blue Line","ada":false,"address":"1050 S. Austin Blvd","legend":"Blue Line","color":"#00a1de"}},{"type":"Feature","geometry":{"type":"Point","coordinates":[-87.71314,41.96793]},"properties":{"station_id":"1290","name":"Kimball","lines":"Brown Line","ada":true,"address":"4755 N. Kimball Avenue","legend":"Brown Line","color":"#62361b"}},{"type":"Feature","geometry":{"type":"Point","coordinates":[-87.62802,41.89167]},"properties":{"station_id":"330","name":"Grand/State","lines":"Red Line","ada":true,"address":"521 N. State Street","legend":"Red Line","color":"#c60c30"}},{"type":"Feature","geometry":{"type":"Point","coordinates":[-87.70543,41.85413]},"properties":{"station_id":"1040","name":"Kedzie-Douglas","lines":"Pink Line","ada":true,"address":"1944 S. Kedzie Avenue","legend":"Pink Line","color":"#e27ea6"}},{"type":"Feature","geometry":{"type":"Point","coordinates":[-87.71652,41.8849]},"properties":{"station_id":"1670","name":"Conservatory-Central Park","lines":"Green Line (Lake)","ada":true,"address":"3631 W. Lake Street","legend":"Green Line","color":"#009b3a"}},{"type":"Feature","geometry":{"type":"Point","coordinates":[-87.73326,41.85375]},"properties":{"station_id":"600","name":"Kostner","lines":"Pink Line","ada":true,"address":"2019 S. Kostner Avenue","legend":"Pink Line","color":"#e27ea6"}},{"type":"Feature","geometry":{"type":"Point","coordinates":[-87.80889,41.98232]},"properties":{"station_id":"750","name":"Harlem-O'Hare","lines":"Blue Line (O'Hare)","ada":true,"address":"5550 N. Harlem Avenue","legend":"Blue Line","color":"#00a1de"}}]}